STARLINK-37824          
1 69956U 26157P   26202.25003472 -.00032978  00000+0 -16407-3 0  9992
2 69956  53.1592 265.2684 0000873  90.2210  31.8454 15.80887772  3132
STARLINK-37919          
1 69957U 26157Q   26202.25003472 -.00084113  00000+0 -42585-3 0  9997
2 69957  53.1591 265.2665 0001129 101.3867  21.6338 15.80919114  3132
STARLINK-37964          
1 69958U 26157R   26202.25003472 -.00064377  00000+0 -32456-3 0  9994
2 69958  53.1593 265.2530 0000707 104.3369  25.1688 15.80906491  3138
STARLINK-37907          
1 69959U 26157S   26202.25003472 -.00007200  00000+0 -32980-4 0  9990
2 69959  53.1592 265.2326 0001057  90.4870  49.1179 15.80866303  3130
STARLINK-37901          
1 69960U 26157T   26202.25003472 -.00046042  00000+0 -23076-3 0  9994
2 69960  53.1589 265.2188 0000997 110.4288  35.7794 15.80892830  3130
STARLINK-37910          
1 69961U 26157U   26202.25003472 -.00032655  00000+0 -16245-3 0  9990
2 69961  53.1590 265.1995 0001068 100.4225  54.8540 15.80882820  3137
STARLINK-37925          
1 69962U 26157V   26202.25003472 -.00031303  00000+0 -15561-3 0  9990
2 69962  53.1588 265.1958 0001175  87.4089  69.8565 15.80875092  3131
STARLINK-37931          
1 69963U 26157W   26202.25003472 -.00033164  00000+0 -16504-3 0  9996
2 69963  53.1590 265.1889 0000939  98.5741  61.9457 15.80885484  3132
STARLINK-37914          
1 69964U 26157X   26202.25003472 -.00070269  00000+0 -35486-3 0  9994
2 69964  53.1590 265.1539 0001045 101.2408  75.8259 15.80904108  3135
STARLINK-37840          
1 69965U 26157Y   26202.25003472 -.00065825  00000+0 -33205-3 0  9994
2 69965  53.1591 265.1191 0001007  95.2263  98.7002 15.80902389  3139
STARLINK-37894          
1 69966U 26157Z   26202.25003472 -.00070494  00000+0 -35604-3 0  9998
2 69966  53.1590 265.1331 0001043  97.8684  89.2620 15.80902848  3131
STARLINK-37875          
1 69967U 26157AA  26202.25003472 -.00062001  00000+0 -31250-3 0  9997
2 69967  53.1590 265.1119 0001044  90.6225 106.6579 15.80896512  3136
STARLINK-36218          
1 69968U 26157AB  26202.25003472 -.00093355  00000+0 -47351-3 0  9993
2 69968  53.1592 265.0845 0000937  98.4865 111.8335 15.80921116  2787
STARLINK-37921          
1 69969U 26157AC  26202.25003472 -.00070428  00000+0 -35557-3 0  9995
2 69969  53.1595 265.0470 0001158  86.0058 142.2805 15.80910410  3133
STARLINK-37896          
1 69970U 26157AD  26202.25003472 -.00083324  00000+0 -42196-3 0  9993
2 69970  53.1594 265.0448 0001024 100.8911 128.4909 15.80910442  3130
STARLINK-37922          
1 69971U 26157AE  26202.25003472 -.00040331  00000+0 -20161-3 0  9993
2 69971  53.1594 265.0418 0001077  99.0555 131.6627 15.80887659  3135
CHUANG XIN 26 (CX-26)   
1 69972U 26158A   26202.08755412 -.00000149  00000+0  44655-5 0  9992
2 69972  49.9829 255.5510 0004955 319.4363  40.6181 14.25124294  1545
CZ-10B DEB              
1 69973U 26158B   26202.08937773  .00000261  00000+0  17899-3 0  9997
2 69973  49.9833 255.5614 0005857 330.3890  29.6691 14.24892855  1542
CZ-10B R/B              
1 69974U 26158C   26202.06915464  .00000057  00000+0  42840-4 0  9997
2 69974  49.9627 252.5628 0197996 222.9672 135.5648 14.64301441  1589
STARLINK-38024          
1 69975U 26159A   26202.25003472 -.00096537  00000+0 -50765-3 0  9991
2 69975  97.2857  41.2698 0001576  85.1216 127.1790 15.80865844  2826
STARLINK-37993          
1 69976U 26159B   26202.25003472 -.00104869  00000+0 -55222-3 0  9993
2 69976  97.2853  41.2715 0001390  85.5493 131.0268 15.80859756  2827
STARLINK-37995          
1 69977U 26159C   26202.25003472 -.00102082  00000+0 -53743-3 0  9995
2 69977  97.2852  41.2737 0001334  86.1705 134.6854 15.80856897  2825
STARLINK-38057          
1 69978U 26159D   26202.25003472 -.00104706  00000+0 -55023-3 0  9994
2 69978  97.2853  41.2751 0001366  95.6182 129.4332 15.80904106  2822
STARLINK-38063          
1 69979U 26159E   26202.25003472 -.00067865  00000+0 -35592-3 0  9998
2 69979  97.2853  41.2776 0001427  90.0024 139.4049 15.80839624  2820
STARLINK-38093          
1 69980U 26159F   26202.25003472 -.00087944  00000+0 -46214-3 0  9993
2 69980  97.2850  41.2791 0001381  89.5277 144.1441 15.80857322  2822
STARLINK-38050          
1 69981U 26159G   26202.25003472 -.00085307  00000+0 -44796-3 0  9998
2 69981  97.2851  41.2803 0001217  94.4254 143.5024 15.80865582  2823
STARLINK-38065          
1 69982U 26159H   26202.25003472 -.00114395  00000+0 -60280-3 0  9995
2 69982  97.2850  41.2827 0001234  95.3451 146.8597 15.80871312  2826
STARLINK-38077          
1 69983U 26159J   26202.25003472 -.00115936  00000+0 -61097-3 0  9995
2 69983  97.2851  41.2844 0001220  97.1195 149.3598 15.80873782  2829
STARLINK-38068          
1 69984U 26159K   26202.25003472 -.00109616  00000+0 -57736-3 0  9999
2 69984  97.2852  41.2853 0001100  99.9591 150.7973 15.80868310  2822
STARLINK-38089          
1 69985U 26159L   26202.25003472 -.00097456  00000+0 -51265-3 0  9999
2 69985  97.2851  41.2882 0001480  94.4838 160.5490 15.80861540  2820
