OBJECT_NAME,OBJECT_ID,EPOCH,MEAN_MOTION,ECCENTRICITY,INCLINATION,RA_OF_ASC_NODE,ARG_OF_PERICENTER,MEAN_ANOMALY,EPHEMERIS_TYPE,CLASSIFICATION_TYPE,NORAD_CAT_ID,ELEMENT_SET_NO,REV_AT_EPOCH,BSTAR,MEAN_MOTION_DOT,MEAN_MOTION_DDOT
STARLINK-37824,2026-157P,2026-07-21T06:00:02.999808,15.80887772,.00008734,53.1592,265.2684,90.2210,31.8454,0,U,69956,999,313,-.16407001E-3,-.32978E-3,0
STARLINK-37919,2026-157Q,2026-07-21T06:00:02.999808,15.80919114,.0001129,53.1591,265.2665,101.3867,21.6338,0,U,69957,999,313,-.42584893E-3,-.84113E-3,0
STARLINK-37964,2026-157R,2026-07-21T06:00:02.999808,15.80906491,.00007078,53.1593,265.2530,104.3369,25.1688,0,U,69958,999,313,-.32456466E-3,-.64377E-3,0
STARLINK-37907,2026-157S,2026-07-21T06:00:02.999808,15.80866303,.00010574,53.1592,265.2326,90.4870,49.1179,0,U,69959,999,313,-.32979943E-4,-.72E-4,0
STARLINK-37901,2026-157T,2026-07-21T06:00:02.999808,15.80892830,.00009973,53.1589,265.2188,110.4288,35.7794,0,U,69960,999,313,-.23076169E-3,-.46042E-3,0
STARLINK-37910,2026-157U,2026-07-21T06:00:02.999808,15.80882820,.00010689,53.1590,265.1995,100.4225,54.8540,0,U,69961,999,313,-.16245413E-3,-.32655E-3,0
STARLINK-37925,2026-157V,2026-07-21T06:00:02.999808,15.80875092,.00011751,53.1588,265.1958,87.4089,69.8565,0,U,69962,999,313,-.15561156E-3,-.31303E-3,0
STARLINK-37931,2026-157W,2026-07-21T06:00:02.999808,15.80885484,.00009395,53.1590,265.1889,98.5741,61.9457,0,U,69963,999,313,-.16503595E-3,-.33164E-3,0
STARLINK-37914,2026-157X,2026-07-21T06:00:02.999808,15.80904108,.0001045,53.1590,265.1539,101.2408,75.8259,0,U,69964,999,313,-.35485735E-3,-.70269E-3,0
STARLINK-37840,2026-157Y,2026-07-21T06:00:02.999808,15.80902389,.00010075,53.1591,265.1191,95.2263,98.7002,0,U,69965,999,313,-.33204854E-3,-.65825E-3,0
STARLINK-37894,2026-157Z,2026-07-21T06:00:02.999808,15.80902848,.00010438,53.1590,265.1331,97.8684,89.2620,0,U,69966,999,313,-.35603743E-3,-.70494E-3,0
STARLINK-37875,2026-157AA,2026-07-21T06:00:02.999808,15.80896512,.00010448,53.1590,265.1119,90.6225,106.6579,0,U,69967,999,313,-.31249538E-3,-.62001E-3,0
STARLINK-36218,2026-157AB,2026-07-21T06:00:02.999808,15.80921116,.00009375,53.1592,265.0845,98.4865,111.8335,0,U,69968,999,278,-.47350663E-3,-.93355E-3,0
STARLINK-37921,2026-157AC,2026-07-21T06:00:02.999808,15.80910410,.00011584,53.1595,265.0470,86.0058,142.2805,0,U,69969,999,313,-.35556603E-3,-.70428E-3,0
STARLINK-37896,2026-157AD,2026-07-21T06:00:02.999808,15.80910442,.00010248,53.1594,265.0448,100.8911,128.4909,0,U,69970,999,313,-.42196146E-3,-.83324E-3,0
STARLINK-37922,2026-157AE,2026-07-21T06:00:02.999808,15.80887659,.00010773,53.1594,265.0418,99.0555,131.6627,0,U,69971,999,313,-.20160731E-3,-.40331E-3,0
CHUANG XIN 26 (CX-26),2026-158A,2026-07-21T02:06:04.675968,14.25124294,.00049554,49.9829,255.5510,319.4363,40.6181,0,U,69972,999,154,.4465452E-5,-.149E-5,0
CZ-10B DEB,2026-158B,2026-07-21T02:08:42.235872,14.24892855,.00058574,49.9833,255.5614,330.3890,29.6691,0,U,69973,999,154,.17898709E-3,.261E-5,0
CZ-10B R/B,2026-158C,2026-07-21T01:39:34.960896,14.64301441,.01979962,49.9627,252.5628,222.9672,135.5648,0,U,69974,999,158,.42839569E-4,.57E-6,0
STARLINK-38024,2026-159A,2026-07-21T06:00:02.999808,15.80865844,.00015767,97.2857,41.2698,85.1216,127.1790,0,U,69975,999,282,-.50765023E-3,-.96537E-3,0
STARLINK-37993,2026-159B,2026-07-21T06:00:02.999808,15.80859756,.00013907,97.2853,41.2715,85.5493,131.0268,0,U,69976,999,282,-.5522192E-3,-.104869E-2,0
STARLINK-37995,2026-159C,2026-07-21T06:00:02.999808,15.80856897,.00013347,97.2852,41.2737,86.1705,134.6854,0,U,69977,999,282,-.53742708E-3,-.102082E-2,0
STARLINK-38057,2026-159D,2026-07-21T06:00:02.999808,15.80904106,.00013666,97.2853,41.2751,95.6182,129.4332,0,U,69978,999,282,-.55023322E-3,-.104706E-2,0
STARLINK-38063,2026-159E,2026-07-21T06:00:02.999808,15.80839624,.00014276,97.2853,41.2776,90.0024,139.4049,0,U,69979,999,282,-.35592163E-3,-.67865E-3,0
STARLINK-38093,2026-159F,2026-07-21T06:00:02.999808,15.80857322,.00013812,97.2850,41.2791,89.5277,144.1441,0,U,69980,999,282,-.46213554E-3,-.87944E-3,0
STARLINK-38050,2026-159G,2026-07-21T06:00:02.999808,15.80865582,.00012176,97.2851,41.2803,94.4254,143.5024,0,U,69981,999,282,-.44796022E-3,-.85307E-3,0
STARLINK-38065,2026-159H,2026-07-21T06:00:02.999808,15.80871312,.00012348,97.2850,41.2827,95.3451,146.8597,0,U,69982,999,282,-.60279968E-3,-.114395E-2,0
STARLINK-38077,2026-159J,2026-07-21T06:00:02.999808,15.80873782,.00012202,97.2851,41.2844,97.1195,149.3598,0,U,69983,999,282,-.61096992E-3,-.115936E-2,0
STARLINK-38068,2026-159K,2026-07-21T06:00:02.999808,15.80868310,.00011004,97.2852,41.2853,99.9591,150.7973,0,U,69984,999,282,-.57735855E-3,-.109616E-2,0
STARLINK-38089,2026-159L,2026-07-21T06:00:02.999808,15.80861540,.00014806,97.2851,41.2882,94.4838,160.5490,0,U,69985,999,282,-.51265231E-3,-.97456E-3,0
